{
  "type": "FeatureCollection",
  "features": [
    {
      "type": "Feature",
      "properties": {
        "norad_id": 66174,
        "name": "HTV-X1",
        "group": "stations",
        "lat": -49.98571635706817,
        "lon": 46.656028835092656,
        "alt_km": 420.30755625577694,
        "timestamp": "2025-12-17T19:34:06.822799+00:00",
        "meta_object_name": "HTV-X1",
        "meta_object_id": "2025-241A",
        "meta_epoch": "2025-12-17T01:19:48.717408",
        "meta_mean_motion": 15.49629327,
        "meta_eccentricity": 0.00031735,
        "meta_inclination": 51.6309,
        "meta_ra_of_asc_node": 121.1077,
        "meta_arg_of_pericenter": 260.4156,
        "meta_mean_anomaly": 99.6474,
        "meta_ephemeris_type": 0,
        "meta_classification_type": "U",
        "meta_norad_cat_id": 66174,
        "meta_element_set_no": 999,
        "meta_rev_at_epoch": 51,
        "meta_bstar": 0.00014583435,
        "meta_mean_motion_dot": 7.77e-05,
        "meta_mean_motion_ddot": 0,
        "tle_line1": "1 66174U 25241A   25351.05542497  .00007770  00000+0  14583-3 0  9994",
        "tle_line2": "2 66174  51.6309 121.1077 0003173 260.4156  99.6474 15.49629327   510"
      },
      "geometry": {
        "type": "Point",
        "coordinates": [
          46.656028835092656,
          -49.98571635706817
        ]
      }
    },
    {
      "type": "Feature",
      "properties": {
        "norad_id": 66515,
        "name": "SZ-21 MODULE",
        "group": "stations",
        "lat": -12.59399967026112,
        "lon": 179.7270135804911,
        "alt_km": 380.75133172012374,
        "timestamp": "2025-12-17T19:34:06.822810+00:00",
        "meta_object_name": "SZ-21 MODULE",
        "meta_object_id": "2025-246C",
        "meta_epoch": "2025-12-17T06:26:59.040960",
        "meta_mean_motion": 15.62718015,
        "meta_eccentricity": 0.00059901,
        "meta_inclination": 41.4771,
        "meta_ra_of_asc_node": 348.414,
        "meta_arg_of_pericenter": 284.3104,
        "meta_mean_anomaly": 75.707,
        "meta_ephemeris_type": 0,
        "meta_classification_type": "U",
        "meta_norad_cat_id": 66515,
        "meta_element_set_no": 999,
        "meta_rev_at_epoch": 515,
        "meta_bstar": 0.00025031156,
        "meta_mean_motion_dot": 0.00022864,
        "meta_mean_motion_ddot": 0,
        "tle_line1": "1 66515U 25246C   25351.26873890  .00022864  00000+0  25031-3 0  9996",
        "tle_line2": "2 66515  41.4771 348.4140 0005990 284.3104  75.7070 15.62718015  5151"
      },
      "geometry": {
        "type": "Point",
        "coordinates": [
          179.7270135804911,
          -12.59399967026112
        ]
      }
    },
    {
      "type": "Feature",
      "properties": {
        "norad_id": 66645,
        "name": "SHENZHOU-22",
        "group": "stations",
        "lat": -30.43513855948801,
        "lon": -152.40653059700492,
        "alt_km": 396.7501216650371,
        "timestamp": "2025-12-17T19:34:06.822835+00:00",
        "meta_object_name": "SHENZHOU-22",
        "meta_object_id": "2025-272A",
        "meta_epoch": "2025-12-17T07:49:42.593088",
        "meta_mean_motion": 15.59373916,
        "meta_eccentricity": 0.0007759,
        "meta_inclination": 41.4681,
        "meta_ra_of_asc_node": 348.8601,
        "meta_arg_of_pericenter": 70.4303,
        "meta_mean_anomaly": 289.7373,
        "meta_ephemeris_type": 0,
        "meta_classification_type": "U",
        "meta_norad_cat_id": 66645,
        "meta_element_set_no": 999,
        "meta_rev_at_epoch": 26357,
        "meta_bstar": 0.00025118398,
        "meta_mean_motion_dot": 0.00020139,
        "meta_mean_motion_ddot": 0,
        "tle_line1": "1 66645U 25272A   25351.32618742  .00020139  00000+0  25118-3 0  9998",
        "tle_line2": "2 66645  41.4681 348.8601 0007759  70.4303 289.7373 15.59373916263579"
      },
      "geometry": {
        "type": "Point",
        "coordinates": [
          -152.40653059700492,
          -30.43513855948801
        ]
      }
    },
    {
      "type": "Feature",
      "properties": {
        "norad_id": 66664,
        "name": "SOYUZ-MS 28",
        "group": "stations",
        "lat": -49.985715520615656,
        "lon": 46.65603367890742,
        "alt_km": 420.30755627172493,
        "timestamp": "2025-12-17T19:34:06.822849+00:00",
        "meta_object_name": "SOYUZ-MS 28",
        "meta_object_id": "2025-275A",
        "meta_epoch": "2025-12-17T01:19:48.717408",
        "meta_mean_motion": 15.49629327,
        "meta_eccentricity": 0.00031735,
        "meta_inclination": 51.6309,
        "meta_ra_of_asc_node": 121.1077,
        "meta_arg_of_pericenter": 260.4156,
        "meta_mean_anomaly": 99.6474,
        "meta_ephemeris_type": 0,
        "meta_classification_type": "U",
        "meta_norad_cat_id": 66664,
        "meta_element_set_no": 999,
        "meta_rev_at_epoch": 128,
        "meta_bstar": 0.00014583435,
        "meta_mean_motion_dot": 7.77e-05,
        "meta_mean_motion_ddot": 0,
        "tle_line1": "1 66664U 25275A   25351.05542497  .00007770  00000+0  14583-3 0  9995",
        "tle_line2": "2 66664  51.6309 121.1077 0003173 260.4156  99.6474 15.49629327  1289"
      },
      "geometry": {
        "type": "Point",
        "coordinates": [
          46.65603367890742,
          -49.985715520615656
        ]
      }
    },
    {
      "type": "Feature",
      "properties": {
        "norad_id": 66906,
        "name": "1998-067XS",
        "group": "stations",
        "lat": -21.506542577566705,
        "lon": 99.04698764397193,
        "alt_km": 417.9792577991029,
        "timestamp": "2025-12-17T19:34:06.822860+00:00",
        "meta_object_name": "1998-067XS",
        "meta_object_id": "1998-067XS",
        "meta_epoch": "2025-12-16T12:45:26.228448",
        "meta_mean_motion": 15.50774437,
        "meta_eccentricity": 0.00032711,
        "meta_inclination": 51.6305,
        "meta_ra_of_asc_node": 123.6106,
        "meta_arg_of_pericenter": 220.1232,
        "meta_mean_anomaly": 139.9515,
        "meta_ephemeris_type": 0,
        "meta_classification_type": "U",
        "meta_norad_cat_id": 66906,
        "meta_element_set_no": 999,
        "meta_rev_at_epoch": 220,
        "meta_bstar": 0.00042417105,
        "meta_mean_motion_dot": 0.00024501,
        "meta_mean_motion_ddot": 0,
        "tle_line1": "1 66906U 98067XS  25350.53155357  .00024501  00000+0  42417-3 0  9998",
        "tle_line2": "2 66906  51.6305 123.6106 0003271 220.1232 139.9515 15.50774437  2203"
      },
      "geometry": {
        "type": "Point",
        "coordinates": [
          99.04698764397193,
          -21.506542577566705
        ]
      }
    },
    {
      "type": "Feature",
      "properties": {
        "norad_id": 66907,
        "name": "1998-067XT",
        "group": "stations",
        "lat": 5.420004106639183,
        "lon": 121.47742562145012,
        "alt_km": 411.72425128469877,
        "timestamp": "2025-12-17T19:34:06.822870+00:00",
        "meta_object_name": "1998-067XT",
        "meta_object_id": "1998-067XT",
        "meta_epoch": "2025-12-16T20:21:31.143168",
        "meta_mean_motion": 15.51965497,
        "meta_eccentricity": 0.00040676,
        "meta_inclination": 51.63,
        "meta_ra_of_asc_node": 121.975,
        "meta_arg_of_pericenter": 250.8278,
        "meta_mean_anomaly": 109.2271,
        "meta_ephemeris_type": 0,
        "meta_classification_type": "U",
        "meta_norad_cat_id": 66907,
        "meta_element_set_no": 999,
        "meta_rev_at_epoch": 225,
        "meta_bstar": 0.00093338761,
        "meta_mean_motion_dot": 0.00057093,
        "meta_mean_motion_ddot": 0,
        "tle_line1": "1 66907U 98067XT  25350.84827712  .00057093  00000+0  93339-3 0  9995",
        "tle_line2": "2 66907  51.6300 121.9750 0004067 250.8278 109.2271 15.51965497  2252"
      },
      "geometry": {
        "type": "Point",
        "coordinates": [
          121.47742562145012,
          5.420004106639183
        ]
      }
    },
    {
      "type": "Feature",
      "properties": {
        "norad_id": 66908,
        "name": "1998-067XU",
        "group": "stations",
        "lat": 8.128823960707496,
        "lon": 123.65626654642539,
        "alt_km": 411.34788169888543,
        "timestamp": "2025-12-17T19:34:06.822880+00:00",
        "meta_object_name": "1998-067XU",
        "meta_object_id": "1998-067XU",
        "meta_epoch": "2025-12-16T14:09:49.500000",
        "meta_mean_motion": 15.5202573,
        "meta_eccentricity": 0.00042401,
        "meta_inclination": 51.6296,
        "meta_ra_of_asc_node": 123.2512,
        "meta_arg_of_pericenter": 248.5284,
        "meta_mean_anomaly": 111.5254,
        "meta_ephemeris_type": 0,
        "meta_classification_type": "U",
        "meta_norad_cat_id": 66908,
        "meta_element_set_no": 999,
        "meta_rev_at_epoch": 221,
        "meta_bstar": 0.00090601602,
        "meta_mean_motion_dot": 0.00055516,
        "meta_mean_motion_ddot": 0,
        "tle_line1": "1 66908U 98067XU  25350.59015625  .00055516  00000+0  90602-3 0  9998",
        "tle_line2": "2 66908  51.6296 123.2512 0004240 248.5284 111.5254 15.52025730  2213"
      },
      "geometry": {
        "type": "Point",
        "coordinates": [
          123.65626654642539,
          8.128823960707496
        ]
      }
    }
  ]
}